NORAD_CAT_ID,OBJECT_NAME,OBJECT_TYPE,EPOCH,MEAN_MOTION,ECCENTRICITY,INCLINATION,RA_OF_ASC_NODE,ARG_OF_PERICENTER,MEAN_ANOMALY,BSTAR,MEAN_MOTION_DOT,MEAN_MOTION_DDOT,TLE_LINE0,TLE_LINE1,TLE_LINE2,SEMIMAJOR_AXIS,PERIOD,APOGEE,PERIGEE,DECAYED
51962.0,STARLINK-3697,PAYLOAD,2022-09-01 22:00:00,15.08848724,0.0001661,53.219,36.6878,42.1662,257.4297,0.0011102,0.00017429,0.0,0 STARLINK-3697,1 51962U 22025G   22244.91667824  .00017429  00000-0  11102-2 0  9991,2 51962  53.2190  36.6878 0001661  42.1662 257.4297 15.08848724 28359,6917.854,95.437,540.868,538.57,0.0
51962.0,STARLINK-3697,PAYLOAD,2022-09-02 14:00:01,15.08854744,0.0001633,53.2191,33.6945,50.4609,272.3448,-0.0015722,-0.00025233,0.0,0 STARLINK-3697,1 51962U 22025G   22245.58334491 -.00025233  00000-0 -15722-2 0  9992,2 51962  53.2191  33.6945 0001633  50.4609 272.3448 15.08854744  1303,6917.835,95.437,540.83,538.571,0.0
51962.0,STARLINK-3697,PAYLOAD,2022-09-02 16:00:00,15.08846867,0.0001708,53.2189,33.321,48.9451,6.7614,-0.0012771,-0.0002056,0.0,0 STARLINK-3697,1 51962U 22025G   22245.66667824 -.00020560  00000-0 -12771-2 0  9999,2 51962  53.2189  33.3210 0001708  48.9451   6.7614 15.08846867 28469,6917.859,95.437,540.906,538.543,0.0
51962.0,STARLINK-3697,PAYLOAD,2022-09-02 22:00:01,15.08832339,0.0001727,53.2186,32.199,45.1727,289.2938,0.0014328,0.00022584,0.0,0 STARLINK-3697,1 51962U 22025G   22245.91668981  .00022584  00000-0  14328-2 0  9998,2 51962  53.2186  32.1990 0001727  45.1727 289.2938 15.08832339  1304,6917.904,95.438,540.964,538.5740000000002,0.0
51962.0,STARLINK-3697,PAYLOAD,2022-09-03 08:00:01,15.08839763,0.0001554999999999,53.2186,30.3268,52.6486,26.2643,0.0018149,0.00028714,0.0,0 STARLINK-3697,1 51962U 22025G   22246.33334491  .00028714  00000-0  18149-2 0  9997,2 51962  53.2186  30.3268 0001555  52.6486  26.2643 15.08839763 28563,6917.880999999999,95.438,540.822,538.67,0.0
51962.0,STARLINK-3697,PAYLOAD,2022-09-03 14:00:01,15.0887325,0.0001623,53.2187,29.2058,48.3732,309.2413,-0.0042147,-0.00066804,0.0,0 STARLINK-3697,1 51962U 22025G   22246.58334491 -.00066804  00000-0 -42147-2 0  9993,2 51962  53.2187  29.2058 0001623  48.3732 309.2413 15.08873250  1301,6917.779,95.435,540.7669999999998,538.521,0.0
51962.0,STARLINK-3697,PAYLOAD,2022-09-03 22:00:00,15.08833342,0.000168,53.2183,27.71,41.2757,327.9489,0.0014835,0.00023396,0.0,0 STARLINK-3697,1 51962U 22025G   22246.91667824  .00023396  00000-0  14835-2 0  9999,2 51962  53.2183  27.7100 0001680  41.2757 327.9489 15.08833342  1308,6917.901,95.438,540.928,538.604,0.0
51962.0,STARLINK-3697,PAYLOAD,2022-09-04 08:00:01,15.08805093,0.0001651,53.2185,25.8378,53.2123,60.5085,0.0027473,0.00043665,0.0,0 STARLINK-3697,1 51962U 22025G   22247.33334491  .00043665  00000-0  27473-2 0  9990,2 51962  53.2185  25.8378 0001651  53.2123  60.5085 15.08805093 28723,6917.986999999999,95.44,540.994,538.71,0.0
51962.0,STARLINK-3697,PAYLOAD,2022-09-04 14:00:01,15.08840637,0.0001776999999999,53.2185,24.7169,49.3842,343.0731,-0.0011949999999999,-0.00019257,0.0,0 STARLINK-3697,1 51962U 22025G   22247.58335648 -.00019257  00000-0 -11950-2 0  9997,2 51962  53.2185  24.7169 0001777  49.3842 343.0731 15.08840637  1307,6917.878000000002,95.438,540.9730000000002,538.514,0.0
51962.0,STARLINK-3697,PAYLOAD,2022-09-04 20:00:01,15.08817557,0.0001893,53.2185,23.5954,45.2074,265.8835,0.0040184,0.00064209,0.0,0 STARLINK-3697,1 51962U 22025G   22247.83334491  .00064209  00000-0  40184-2 0  9996,2 51962  53.2185  23.5954 0001893  45.2074 265.8835 15.08817557  1308,6917.949000000001,95.439,541.124,538.504,0.0
51962.0,STARLINK-3697,PAYLOAD,2022-09-05 06:00:00,15.088512699999995,0.0001761,53.2186,21.7228,50.7971,4.8008,0.0012406,0.00019517,0.0,0 STARLINK-3697,1 51962U 22025G   22248.25001157  .00019517  00000-0  12406-2 0  9991,2 51962  53.2186  21.7228 0001761  50.7971   4.8008 15.08851270 28856,6917.846,95.437,540.929,538.493,0.0
51962.0,STARLINK-3697,PAYLOAD,2022-09-05 14:00:01,15.08858964,0.0001952,53.2187,20.2278,50.0612,17.1514,-0.0015325,-0.00024608,0.0,0 STARLINK-3697,1 51962U 22025G   22248.58334491 -.00024608  00000-0 -15325-2 0  9999,2 51962  53.2187  20.2278 0001952  50.0612  17.1514 15.08858964  1300,6917.821999999999,95.436,541.038,538.337,0.0
51962.0,STARLINK-3697,PAYLOAD,2022-09-05 22:00:00,15.08857256,0.0001929,53.2188,18.7316,44.1572,34.6587,-0.0036385999999999,-0.00057761,0.0,0 STARLINK-3697,1 51962U 22025G   22248.91667824 -.00057761  00000-0 -36386-2 0  9991,2 51962  53.2188  18.7316 0001929  44.1572  34.6587 15.08857256  1306,6917.828,95.436,541.0269999999998,538.3580000000002,0.0
51962.0,STARLINK-3697,PAYLOAD,2022-09-06 12:00:00,15.08831834,0.0001791,53.2194,16.1123,47.2839,321.7846,-0.00094525,-0.00015297,0.0,0 STARLINK-3697,1 51962U 22025G   22249.50001157 -.00015297  00000-0 -94525-3 0  9996,2 51962  53.2194  16.1123 0001791  47.2839 321.7846 15.08831834 29041,6917.905,95.438,541.009,538.531,0.0
51962.0,STARLINK-3697,PAYLOAD,2022-09-06 14:00:01,15.08828403,0.0001855,53.2192,15.7387,45.4961,56.4682,-0.00073349,-0.00011939,0.0,0 STARLINK-3697,1 51962U 22025G   22249.58334491 -.00011939  00000-0 -73349-3 0  9994,2 51962  53.2192  15.7387 0001855  45.4961  56.4682 15.08828403  1300,6917.916,95.438,541.064,538.498,0.0
51962.0,STARLINK-3697,PAYLOAD,2022-09-06 22:00:00,15.08846987,0.0001879,53.2193,14.2425,41.2672,72.2687,-0.0015885,-0.00025485,0.0,0 STARLINK-3697,1 51962U 22025G   22249.91667824 -.00025485  00000-0 -15885-2 0  9991,2 51962  53.2193  14.2425 0001879  41.2672  72.2687 15.08846987  1305,6917.859,95.437,541.024,538.424,0.0
51962.0,STARLINK-3697,PAYLOAD,2022-09-07 14:00:01,15.08831355,0.0001792,53.2197,11.2499,42.3212,94.3775,-0.00065744,-0.00010734,0.0,0 STARLINK-3697,1 51962U 22025G   22250.58334491 -.00010734  00000-0 -65744-3 0  9998,2 51962  53.2197  11.2499 0001792  42.3212  94.3775 15.08831355 29219,6917.906999999997,95.438,541.012,538.5319999999998,0.0
51962.0,STARLINK-3697,PAYLOAD,2022-09-07 22:00:00,15.08844222,0.0001824,53.2196,9.7535,39.8009,108.476,-0.00016347,-2.889e-05,0.0,0 STARLINK-3697,1 51962U 22025G   22250.91667824 -.00002889  00000-0 -16347-3 0  9991,2 51962  53.2196   9.7535 0001824  39.8009 108.4760 15.08844222  1300,6917.8669999999975,95.437,540.994,538.471,0.0
51962.0,STARLINK-3697,PAYLOAD,2022-09-08 06:00:00,15.08837559,0.0001659,53.2199,8.2558,45.9238,113.9609,0.0024592,0.00039065,0.0,0 STARLINK-3697,1 51962U 22025G   22251.25001157  .00039065  00000-0  24592-2 0  9994,2 51962  53.2199   8.2558 0001659  45.9238 113.9609 15.08837559 29319,6917.888000000001,95.438,540.901,538.605,0.0
51962.0,STARLINK-3697,PAYLOAD,2022-09-08 14:00:01,15.08853639,0.0001853,53.22,6.7611,43.5795,127.9142,-0.0021276999999999,-0.00034004,0.0,0 STARLINK-3697,1 51962U 22025G   22251.58334491 -.00034004  00000-0 -21277-2 0  9997,2 51962  53.2200   6.7611 0001853  43.5795 127.9142 15.08853639  1306,6917.839,95.437,540.986,538.422,0.0
51962.0,STARLINK-3697,PAYLOAD,2022-09-08 22:00:00,15.08869524,0.000185,53.2197,5.2645,41.893,141.1978,-0.0033538,-0.00053313,0.0,0 STARLINK-3697,1 51962U 22025G   22251.91667824 -.00053313  00000-0 -33538-2 0  9990,2 51962  53.2197   5.2645 0001850  41.8930 141.1978 15.08869524  1306,6917.79,95.436,540.935,538.375,0.0
51962.0,STARLINK-3697,PAYLOAD,2022-09-09 00:00:02,15.08867689,0.0001766999999999,53.2199,4.8899,42.5933,233.4636,-0.0039507,-0.00062665,0.0,0 STARLINK-3697,1 51962U 22025G   22252.00002315 -.00062665  00000-0 -39507-2 0  9991,2 51962  53.2199   4.8899 0001767  42.5933 233.4636 15.08867689 29421,6917.795999999999,95.436,540.883,538.438,0.0
51962.0,STARLINK-3697,PAYLOAD,2022-09-09 14:00:01,15.08848535,0.0001836,53.2198,2.2726,42.7538,163.5319,-0.00093584,-0.00015155,0.0,0 STARLINK-3697,1 51962U 22025G   22252.58334491 -.00015155  00000-0 -93584-3 0  9995,2 51962  53.2198   2.2726 0001836  42.7538 163.5319 15.08848535  1308,6917.854,95.437,540.989,538.4490000000002,0.0
51962.0,STARLINK-3697,PAYLOAD,2022-09-09 22:00:00,15.08851353,0.0001879,53.2192,0.7753,42.7487,175.1357,-0.0028761999999999,-0.00045787,0.0,0 STARLINK-3697,1 51962U 22025G   22252.91667824 -.00045787  00000-0 -28762-2 0  9990,2 51962  53.2192   0.7753 0001879  42.7487 175.1357 15.08851353  1308,6917.846,95.437,541.011,538.411,0.0
51962.0,STARLINK-3697,PAYLOAD,2022-09-10 14:00:01,15.08853197,0.0001911,53.2194,357.7841,45.1572,195.9128,-0.0020569,-0.00032887,0.0,0 STARLINK-3697,1 51962U 22025G   22253.58334491 -.00032887  00000-0 -20569-2 0  9999,2 51962  53.2194 357.7841 0001911  45.1572 195.9128 15.08853197  1306,6917.84,95.437,541.0269999999998,538.383,0.0
51962.0,STARLINK-3697,PAYLOAD,2022-09-10 22:00:00,15.08851378,0.0001878,53.2191,356.2873,43.3428,209.3219,-0.0045726,-0.00072354,0.0,0 STARLINK-3697,1 51962U 22025G   22253.91667824 -.00072354  00000-0 -45726-2 0  9990,2 51962  53.2191 356.2873 0001878  43.3428 209.3219 15.08851378  1304,6917.846,95.437,541.01,538.411,0.0
51962.0,STARLINK-3697,PAYLOAD,2022-09-11 06:00:00,15.08803628,0.0001815,53.2188,354.7892,50.1335,214.1213,0.00273,0.00043385,0.0,0 STARLINK-3697,1 51962U 22025G   22254.25001157  .00043385  00000-0  27300-2 0  9997,2 51962  53.2188 354.7892 0001815  50.1335 214.1213 15.08803628 29761,6917.9919999999975,95.44,541.112,538.601,0.0
51962.0,STARLINK-3697,PAYLOAD,2022-09-11 14:00:01,15.08826437,0.0002004,53.2191,353.2956,44.93600000000001,230.8976,0.0010149,0.00015895,0.0,0 STARLINK-3697,1 51962U 22025G   22254.58334491  .00015895  00000-0  10149-2 0  9991,2 51962  53.2191 353.2956 0002004  44.9360 230.8976 15.08826437  1304,6917.922,95.438,541.173,538.4,0.0
51962.0,STARLINK-3697,PAYLOAD,2022-09-11 22:00:00,15.0886949,0.0001894,53.219,351.7987,42.6429,244.7661,-0.0042075,-0.00066686,0.0,0 STARLINK-3697,1 51962U 22025G   22254.91667824 -.00066686  00000-0 -42075-2 0  9996,2 51962  53.2190 351.7987 0001894  42.6429 244.7661 15.08869490 29869,6917.79,95.436,540.965,538.345,0.0
